SL-16 R/B               
1 28353U 04021B   25177.75604647  .00000284  00000+0  17257-3 0  9997
2 28353  71.0008  49.5710 0003310  57.1751 302.9689 14.14549931 86640
CZ-4B R/B               
1 28415U 04035C   25177.67030160  .00005019  00000+0  20450-3 0  9995
2 28415  97.3783 210.4407 0036731 151.3028 209.0241 15.24300485140855
CZ-2C R/B               
1 28480U 04046B   25177.82160120  .00000070  00000+0  41452-4 0  9994
2 28480  98.1937 103.8033 0139402 191.0474 168.7639 14.26838152 72014
ARIANE 5 R/B            
1 28499U 04049H   25177.43004608  .00000679  00000+0  82381-4 0  9993
2 28499  98.2349 331.8991 0086629 101.3012 259.7951 14.84538136107764
CZ-2D R/B               
1 28738U 05024B   25178.00372217  .00014732  00000+0  32369-3 0  9996
2 28738  97.3664 182.2307 0004638 223.4885 136.5998 15.44107621100161
ALOS (DAICHI)           
1 28931U 06002A   25177.84857023  .00000932  00000+0  16821-3 0  9994
2 28931  98.0848 130.9035 0001987  64.0380 296.1030 14.68756165 36299
H-2A R/B                
1 28932U 06002B   25177.89159009  .00004908  00000+0  28566-3 0  9995
2 28932  98.2141 299.6384 0058753  29.8150 330.6404 15.11110494 55844
RESURS-DK 1             
1 29228U 06021A   25177.28239010  .00001410  00000+0  90517-4 0  9990
2 29228  69.9310 179.3241 0004383 194.2824 165.8218 15.11020851 48779
GENESIS 1               
1 29252U 06029A   25177.91282741  .01018934  74752-5  65345-3 0  9995
2 29252  64.4894 299.1791 0025680 285.3004 193.6315 16.16293176 49102
CZ-4B R/B               
1 29507U 06046C   25177.65609346  .00003619  00000+0  20038-3 0  9994
2 29507  97.5943 218.2463 0037069  73.6989 286.8314 15.13892284 21272
CZ-2C R/B               
1 31114U 07010B   25177.76891584  .00000057  00000+0  45245-4 0  9993
2 31114  98.3810 299.1036 0058232 319.2951  40.3882 14.20131857943408
COSMO-SKYMED 1          
1 31598U 07023A   25178.18171227  .00000808  00000+0  80951-4 0  9992
2 31598  97.8873   2.6537 0001411  93.3568 266.7813 14.94149145976786
GENESIS 2               
1 31789U 07028A   25177.92615244  .00104020  00000+0  49435-3 0  9994
2 31789  64.4740 355.2104 0023293 300.5998  59.2858 15.81969785995658
COSMOS 2428             
1 31792U 07029A   25178.02755180  .00000361  00000+0  21969-3 0  9990
2 31792  70.9392  20.0155 0005481 257.9116 102.1391 14.12868746928065
SL-16 R/B               
1 31793U 07029B   25177.92311816 -.00000168  00000+0 -62247-4 0  9995
2 31793  70.9756 350.0014 0002042 278.7264 233.5716 14.14783914929195
KORONAS-FOTON           
1 33504U 09003A   25177.53853239  .00006623  00000+0  18208-3 0  9995
2 33504  82.4311 180.7118 0011611   5.5626 354.5745 15.36934284906324
CZ-2C R/B               
1 37731U 11030B   25177.82559400  .00000811  00000+0  11080-3 0  9993
2 37731  97.8153 136.0572 0055006 102.5266 279.7889 14.80233133752235
H-2A R/B                
1 38341U 12025E   25177.82242100  .00001629  00000+0  15948-3 0  9997
2 38341  98.4376 120.5253 0047770  69.3456 291.2874 14.93066488710015
SHIJIAN-16 (SJ-16)      
1 39358U 13057A   25178.18672412  .00001144  00000+0  11722-3 0  9993
2 39358  74.9725 308.3869 0016991  10.9716 349.1838 14.91393060633476
SL-4 R/B                
1 39679U 14021B   25177.27414040  .00004834  00000+0  13910-3 0  9991
2 39679  51.6087 140.5606 0111379 253.6900 105.1808 15.31834578616889
ALOS-2                  
1 39766U 14029A   25178.20195540  .00000665  00000+0  95997-4 0  9995
2 39766  97.9225 275.4603 0001638 101.3434 258.7961 14.79465629599125
YAOGAN-29               
1 41038U 15069A   25178.17902896  .00000309  00000+0  45084-4 0  9998
2 41038  98.0338 200.6452 0002962  94.8496 265.3055 14.82651448518011
ASTRO-H (HITOMI)        
1 41337U 16012A   25177.37904262  .00001537  00000+0  91286-4 0  9998
2 41337  30.9986 207.9725 0010080 278.3171  81.6323 15.08097778513481
HXMT (HUIYAN)           
1 42758U 17034A   25177.93731490  .00003518  00000+0  20087-3 0  9995
2 42758  43.0155 354.4675 0033600  60.0461 300.3716 15.13932133443753
CZ-2C R/B               
1 43521U 18054D   25177.53819607  .00022700  00000+0  34363-3 0  9996
2 43521  35.1372 225.5514 0032002 337.8686  22.0658 15.53091342388601
SAOCOM 1A               
1 43641U 18076A   25178.16557106  .00000267  00000+0  40086-4 0  9990
2 43641  97.8887   5.0014 0001401  88.9756 271.1618 14.82148855363516
H-2A R/B                
1 43682U 18084L   25177.83491876  .00011107  00000+0  37006-3 0  9990
2 43682  98.8767 338.0243 0032314 182.6708 177.4361 15.30837641366516
SAOCOM 1B               
1 46265U 20059A   25178.19683189  .00000246  00000+0  37448-4 0  9998
2 46265  97.8887   4.1352 0001538  93.2965 266.8424 14.82153792260910
CSS (TIANHE)            
1 48274U 21035A   25178.05733765  .00023770  00000+0  29581-3 0  9991
2 48274  41.4651 320.7376 0005113 200.2596 159.8040 15.59372761237690
COSMOS 2550             
1 48865U 21056A   25178.09928220  .00006517  00000+0  20371-3 0  9994
2 48865  67.1432  94.1169 0008394 269.2302  90.7891 15.33834954224270
CZ-2C R/B               
1 52794U 22058K   25177.97602462  .00009769  00000+0  23465-3 0  9995
2 52794  50.1911 177.8501 0055482 216.8835 142.8308 15.40405138170568
GSLV R/B                
1 54149U 22138AN  25177.69086848  .00001585  00000+0  14223-3 0  9993
2 54149  87.3788 252.0802 0022339   7.7987 352.3586 14.94878992145667
XRISM                   
1 57800U 23137A   25177.57706180  .00003328  00000+0  20417-3 0  9994
2 57800  31.0012 135.6500 0008023 345.4746  14.5660 15.08179634 99054
ACS3                    
1 59588U 24077B   25177.98131835  .00008462  00000+0  82136-2 0  9996
2 59588  97.4643 170.2360 0070572  74.3272 286.5657 13.78597317 58840
